{
    "CCSDS_OMM_VERS": "3.0",
    "COMMENT": "GENERATED VIA SPACE-TRACK.ORG API",
    "CREATION_DATE": "2025-05-22T17:14:14",
    "ORIGINATOR": "18 SPCS",
    "OBJECT_NAME": "NAVSTAR 66 (USA 232)",
    "OBJECT_ID": "2011-036A",
    "CENTER_NAME": "EARTH",
    "REF_FRAME": "TEME",
    "TIME_SYSTEM": "UTC",
    "MEAN_ELEMENT_THEORY": "SGP4",
    "EPOCH": "2025-05-22T11:51:48.599136",
    "MEAN_MOTION": "2.00566495",
    "ECCENTRICITY": "0.01357280",
    "INCLINATION": "56.7129",
    "RA_OF_ASC_NODE": "347.2007",
    "ARG_OF_PERICENTER": "59.8665",
    "MEAN_ANOMALY": "313.2463",
    "EPHEMERIS_TYPE": "0",
    "CLASSIFICATION_TYPE": "U",
    "NORAD_CAT_ID": "37753",
    "ELEMENT_SET_NO": "999",
    "REV_AT_EPOCH": "10144",
    "BSTAR": "0.00000000000000",
    "MEAN_MOTION_DOT": "-0.00000061",
    "MEAN_MOTION_DDOT": "0.0000000000000",
    "SEMIMAJOR_AXIS": "26560.093",
    "PERIOD": "717.966",
    "APOAPSIS": "20542.452",
    "PERIAPSIS": "19821.463",
    "OBJECT_TYPE": "PAYLOAD",
    "RCS_SIZE": "LARGE",
    "COUNTRY_CODE": "US",
    "LAUNCH_DATE": "2011-07-16",
    "SITE": "AFETR",
    "DECAY_DATE": null,
    "FILE": "4736220",
    "GP_ID": "288141270",
    "TLE_LINE0": "0 NAVSTAR 66 (USA 232)",
    "TLE_LINE1": "1 37753U 11036A   25142.49431249 -.00000061  00000-0  00000-0 0  9994",
    "TLE_LINE2": "2 37753  56.7129 347.2007 0135728  59.8665 313.2463  2.00566495101444"
}